NORAD_CAT_ID,OBJECT_NAME,OBJECT_TYPE,EPOCH,MEAN_MOTION,ECCENTRICITY,INCLINATION,RA_OF_ASC_NODE,ARG_OF_PERICENTER,MEAN_ANOMALY,BSTAR,MEAN_MOTION_DOT,MEAN_MOTION_DDOT,TLE_LINE0,TLE_LINE1,TLE_LINE2,SEMIMAJOR_AXIS,PERIOD,APOGEE,PERIGEE,DECAYED
49752.0,STARLINK-3209,PAYLOAD,2022-07-13 11:23:51,15.08848506,0.0001369,53.2161,13.1484,59.5548,300.5579,0.00032329,4.862e-05,0.0,0 STARLINK-3209,1 49752U 21115AE  22194.47490246  .00004862  00000-0  32329-3 0  9993,2 49752  53.2161  13.1484 0001369  59.5548 300.5579 15.08848506 34105,6917.854,95.437,540.6659999999998,538.7719999999998,0.0
49752.0,STARLINK-3209,PAYLOAD,2022-07-13 19:20:47,15.08849619,0.0001528,53.2165,11.6617,59.0085,301.1057,0.00030799,4.618e-05,0.0,0 STARLINK-3209,1 49752U 21115AE  22194.80610263  .00004618  00000-0  30799-3 0  9991,2 49752  53.2165  11.6617 0001528  59.0085 301.1057 15.08849619 34157,6917.851,95.437,540.773,538.659,0.0
49752.0,STARLINK-3209,PAYLOAD,2022-07-14 04:53:06,15.08826419,0.0001345,53.2169,9.8773,66.7878,293.3256,-0.00023746,-4.064e-05,0.0,0 STARLINK-3209,1 49752U 21115AE  22195.20355044 -.00004064  00000-0 -23746-3 0  9990,2 49752  53.2169   9.8773 0001345  66.7878 293.3256 15.08826419 35321,6917.922,95.438,540.717,538.856,0.0
49752.0,STARLINK-3209,PAYLOAD,2022-07-14 11:14:39,15.08826366,0.0001374,53.2167,8.6877,60.895,299.218,-0.00014734,-2.631e-05,0.0,0 STARLINK-3209,1 49752U 21115AE  22195.46851310 -.00002631  00000-0 -14734-3 0  9990,2 49752  53.2167   8.6877 0001374  60.8950 299.2180 15.08826366 34252,6917.922,95.438,540.738,538.837,0.0
49752.0,STARLINK-3209,PAYLOAD,2022-07-14 19:11:35,15.08832256,0.0001523,53.2167,7.2013,57.0241,303.0897,1.4404e-05,-5.9e-07,0.0,0 STARLINK-3209,1 49752U 21115AE  22195.79971520 -.00000059  00000-0  14404-4 0  9998,2 49752  53.2167   7.2013 0001523  57.0241 303.0897 15.08832256 34306,6917.904,95.438,540.823,538.715,0.0
49752.0,STARLINK-3209,PAYLOAD,2022-07-15 04:43:54,15.08838396,0.0001481,53.2165,5.416,58.9771,301.1366,0.00033091,4.982e-05,0.0,0 STARLINK-3209,1 49752U 21115AE  22196.19715649  .00004982  00000-0  33091-3 0  9991,2 49752  53.2165   5.4160 0001481  58.9771 301.1366 15.08838396 35478,6917.885,95.438,540.775,538.726,0.0
49752.0,STARLINK-3209,PAYLOAD,2022-07-15 11:05:27,15.08839121,0.0001478,53.2163,4.2266,59.2377,300.876,0.0005375,8.276e-05,0.0,0 STARLINK-3209,1 49752U 21115AE  22196.46211857  .00008276  00000-0  53750-3 0  9997,2 49752  53.2163   4.2266 0001478  59.2377 300.8760 15.08839121 34405,6917.8830000000025,95.438,540.771,538.726,0.0
49752.0,STARLINK-3209,PAYLOAD,2022-07-15 19:02:22,15.08852863,0.0001529,53.2164,2.7401,57.1004,303.0135,0.00087795,0.00013717,0.0,0 STARLINK-3209,1 49752U 21115AE  22196.79331660  .00013717  00000-0  87795-3 0  9990,2 49752  53.2164   2.7401 0001529  57.1004 303.0135 15.08852863 34455,6917.840999999999,95.437,540.764,538.648,0.0
49752.0,STARLINK-3209,PAYLOAD,2022-07-16 10:56:13,15.08853345,0.0001579,53.2167,359.7663,57.2703,302.8441,0.00042846,6.54e-05,0.0,0 STARLINK-3209,1 49752U 21115AE  22197.45571287  .00006540  00000-0  42846-3 0  9999,2 49752  53.2167 359.7663 0001579  57.2703 302.8441 15.08853345 35662,6917.84,95.437,540.797,538.612,0.0
49752.0,STARLINK-3209,PAYLOAD,2022-07-16 18:53:09,15.08845782,0.0001585,53.2169,358.2797,55.5521,304.562,8.303299999999999e-05,1.034e-05,0.0,0 STARLINK-3209,1 49752U 21115AE  22197.78691245  .00001034  00000-0  83033-4 0  9999,2 49752  53.2169 358.2797 0001585  55.5521 304.5620 15.08845782 35712,6917.863,95.437,540.8240000000002,538.631,0.0
49752.0,STARLINK-3209,PAYLOAD,2022-07-16 20:28:32,15.08845904,0.0001591,53.2169,357.9822,55.6408,304.4735,7.7442e-05,9.45e-06,0.0,0 STARLINK-3209,1 49752U 21115AE  22197.85315213  .00000945  00000-0  77442-4 0  9992,2 49752  53.2169 357.9822 0001591  55.6408 304.4735 15.08845904 34619,6917.861999999999,95.437,540.828,538.627,0.0
49752.0,STARLINK-3209,PAYLOAD,2022-07-16 22:03:55,15.08846985,0.0001598,53.217,357.6849,56.1659,303.9485,0.00010544,1.391e-05,0.0,0 STARLINK-3209,1 49752U 21115AE  22197.91939172  .00001391  00000-0  10544-3 0  9990,2 49752  53.2170 357.6849 0001598  56.1659 303.9485 15.08846985 34625,6917.859,95.437,540.83,538.619,0.0
49752.0,STARLINK-3209,PAYLOAD,2022-07-17 17:08:32,15.08846268,0.0001624,53.2173,354.1168,55.863,304.2516,0.00011037,1.469e-05,0.0,0 STARLINK-3209,1 49752U 21115AE  22198.71427043  .00001469  00000-0  11037-3 0  9992,2 49752  53.2173 354.1168 0001624  55.8630 304.2516 15.08846268 34745,6917.861,95.437,540.85,538.6030000000002,0.0
49752.0,STARLINK-3209,PAYLOAD,2022-07-17 21:54:42,15.08842074,0.0001611,53.2174,353.2246,55.6019,304.5125,3.1272e-05,2.1e-06,0.0,0 STARLINK-3209,1 49752U 21115AE  22198.91299150  .00000210  00000-0  31272-4 0  9997,2 49752  53.2174 353.2246 0001611  55.6019 304.5125 15.08842074 35884,6917.874,95.437,540.854,538.625,0.0
49752.0,STARLINK-3209,PAYLOAD,2022-07-18 10:37:48,15.08832975,0.00017,53.2175,350.846,56.1276,303.9878,-7.515e-05,-1.484e-05,0.0,0 STARLINK-3209,1 49752U 21115AE  22199.44291707 -.00001484  00000-0 -75150-4 0  9995,2 49752  53.2175 350.8460 0001700  56.1276 303.9878 15.08832975 35962,6917.901999999999,95.438,540.943,538.591,0.0
49752.0,STARLINK-3209,PAYLOAD,2022-07-18 16:59:20,15.08837066,0.0001712,53.2176,349.657,56.7001,303.4155,-1.3581e-05,-5.04e-06,0.0,0 STARLINK-3209,1 49752U 21115AE  22199.70787716 -.00000504  00000-0 -13581-4 0  9996,2 49752  53.2176 349.6570 0001712  56.7001 303.4155 15.08837066 34896,6917.889,95.438,540.939,538.57,0.0
49752.0,STARLINK-3209,PAYLOAD,2022-07-19 10:28:35,15.08838416,0.0001801,53.2188,346.3845,54.8774,305.2387,0.00012296,1.669e-05,0.0,0 STARLINK-3209,1 49752U 21115AE  22200.43651860  .00001669  00000-0  12296-3 0  9991,2 49752  53.2188 346.3845 0001801  54.8774 305.2387 15.08838416 35004,6917.885,95.438,540.996,538.504,0.0
49752.0,STARLINK-3209,PAYLOAD,2022-07-19 20:00:53,15.08848392,0.0001509,53.2174,344.602,56.5946,303.5191,0.00031936,4.799e-05,0.0,0 STARLINK-3209,1 49752U 21115AE  22200.83395441  .00004799  00000-0  31936-3 0  9994,2 49752  53.2174 344.6020 0001509  56.5946 303.5191 15.08848392 36177,6917.855,95.437,540.764,538.6759999999998,0.0
49752.0,STARLINK-3209,PAYLOAD,2022-07-20 13:30:07,15.08852524,0.0001547,53.2172,341.3313,56.7792,303.3348,0.00028435,4.242e-05,0.0,0 STARLINK-3209,1 49752U 21115AE  22201.56259031  .00004242  00000-0  28435-3 0  9992,2 49752  53.2172 341.3313 0001547  56.7792 303.3348 15.08852524 35170,6917.842,95.437,540.7769999999998,538.637,0.0
49752.0,STARLINK-3209,PAYLOAD,2022-07-20 19:51:39,15.0886048,0.0001615,53.2169,340.142,56.2694,303.8452,0.00044523,6.809e-05,0.0,0 STARLINK-3209,1 49752U 21115AE  22201.82754627  .00006809  00000-0  44523-3 0  9999,2 49752  53.2169 340.1420 0001615  56.2694 303.8452 15.08860480 35210,6917.818,95.436,540.8,538.566,0.0
49752.0,STARLINK-3209,PAYLOAD,2022-07-21 02:13:12,15.08850033,0.0001230999999999,53.2168,338.9525,44.3285,315.7805,1.7563e-05,-8e-08,0.0,0 STARLINK-3209,1 49752U 21115AE  22202.09250486 -.00000008  00000-0  17563-4 0  9994,2 49752  53.2168 338.9525 0001231  44.3285 315.7805 15.08850033 36362,6917.85,95.437,540.566,538.863,0.0
49752.0,STARLINK-3209,PAYLOAD,2022-07-21 08:34:45,15.08848163,0.0002048,53.2165,337.761,56.4483,303.6705,1.4692e-05,-5.4e-07,0.0,0 STARLINK-3209,1 49752U 21115AE  22202.35746714 -.00000054  00000-0  14692-4 0  9998,2 49752  53.2165 337.7610 0002048  56.4483 303.6705 15.08848163 35299,6917.855,95.437,541.137,538.304,0.0
49752.0,STARLINK-3209,PAYLOAD,2022-07-21 18:07:04,15.08825309,0.0001746,53.2165,335.9787,57.2046,302.9114,-0.0002255999999999,-3.875e-05,0.0,0 STARLINK-3209,1 49752U 21115AE  22202.75491843 -.00003875  00000-0 -22560-3 0  9999,2 49752  53.2165 335.9787 0001746  57.2046 302.9114 15.08825309 35352,6917.925,95.438,540.998,538.582,0.0
49752.0,STARLINK-3209,PAYLOAD,2022-07-22 11:36:19,15.08834893,0.0001699999999999,53.2162,332.7071,56.9298,303.1858,0.00048667,7.465e-05,0.0,0 STARLINK-3209,1 49752U 21115AE  22203.48356430  .00007465  00000-0  48667-3 0  9995,2 49752  53.2162 332.7071 0001700  56.9298 303.1858 15.08834893 36576,6917.896,95.438,540.937,538.585,0.0
49752.0,STARLINK-3209,PAYLOAD,2022-07-23 13:02:29,15.08848894,0.0001804,53.2171,327.9498,62.8948,297.2228,0.0003895,5.918e-05,0.0,0 STARLINK-3209,1 49752U 21115AE  22204.54340240  .00005918  00000-0  38950-3 0  9990,2 49752  53.2171 327.9498 0001804  62.8948 297.2228 15.08848894 35623,6917.853,95.437,540.966,538.47,0.0
49752.0,STARLINK-3209,PAYLOAD,2022-07-23 14:37:53,15.088474599999998,0.0001715,53.2174,327.652,63.2805,296.8363,0.00038178,5.794e-05,0.0,0 STARLINK-3209,1 49752U 21115AE  22204.60964280  .00005794  00000-0  38178-3 0  9997,2 49752  53.2174 327.6520 0001715  63.2805 296.8363 15.08847460 36744,6917.858,95.437,540.909,538.536,0.0
49752.0,STARLINK-3209,PAYLOAD,2022-07-23 19:24:02,15.088375199999998,0.0001624,53.216,326.7586,60.0795,300.0358,1.3247e-05,-7.7e-07,0.0,0 STARLINK-3209,1 49752U 21115AE  22204.80836420 -.00000077  00000-0  13247-4 0  9994,2 49752  53.2160 326.7586 0001624  60.0795 300.0358 15.08837520 36774,6917.888000000001,95.438,540.876,538.63,0.0
49752.0,STARLINK-3209,PAYLOAD,2022-07-24 12:53:17,15.08837937,0.0001629999999999,53.2166,323.4881,53.7379,306.3764,4.7191e-05,4.63e-06,0.0,0 STARLINK-3209,1 49752U 21115AE  22205.53700725  .00000463  00000-0  47191-4 0  9996,2 49752  53.2166 323.4881 0001630  53.7379 306.3764 15.08837937 35777,6917.887,95.438,540.879,538.624,0.0
49752.0,STARLINK-3209,PAYLOAD,2022-07-24 19:14:49,15.08840509,0.0001604,53.2173,322.2992,55.8627,304.2517,0.00011873,1.602e-05,0.0,0 STARLINK-3209,1 49752U 21115AE  22205.80196705  .00001602  00000-0  11873-3 0  9996,2 49752  53.2173 322.2992 0001604  55.8627 304.2517 15.08840509 35812,6917.879,95.438,540.8530000000002,538.634,0.0
